VELA 1                   Age = -1.41
1 00692U 63039C   22014.16313415 -.00000502  00000-0  00000+0 0  9998
2 00692  11.6594 318.9873 5447089 267.5525 359.3133  0.22103822 46998
OPS 6577 (VELA 5)        Age = -1.04
1 01458U 65058A   22013.79386305 -.00001551  00000-0  00000+0 0  9993
2 01458  20.8566  10.1255 4954546 273.7169   0.1179  0.21325233 82743
TITAN 3C TRANSTAGE R/B   Age = -0.38
1 03956U 69046F   22013.13140485 -.00000984  00000-0  00000+0 0  9993
2 03956  17.7077 342.9631 8122567 282.3239   0.5490  0.46175997 54681
ASTRON                   Age = -0.47
1 13901U 83020A   22013.22481926 -.00000500  00000-0  00000+0 0  9994
2 13901  67.6675  71.9029 7389963 357.6125   0.9946  0.24255010 47496
GEOTAIL                  Age = -1.89
1 22049U 92044A   22014.64330923 -.00000646  00000-0  00000-0 0  9992
2 22049  43.4429  39.3247 4996264 192.5586 358.6985  0.19218574 12665
CXO                      Age = -1.92
1 25867U 99040B   22014.66923885  .00000312  00000-0  00000+0 0  9991
2 25867  49.6445 245.1696 8634766 229.1546   0.1816  0.37804926 22373
CLUSTER II-FM7 (SAMBA)   Age = -0.06
1 26410U 00041A   22012.80925613  .00000388  00000-0  00000-0 0  9998
2 26410 133.5459 346.3161 5309540 196.3892 359.3316  0.44229060 13127
CLUSTER II-FM6 (SALSA)   Age = -0.05
1 26411U 00041B   22012.80154847  .00000602  00000-0  00000-0 0  9991
2 26411 135.0638 348.9540 6904841 200.9341 359.3869  0.44223861 13160
CLUSTER II-FM5 (RUMBA)   Age = -0.05
1 26463U 00045A   22012.80503846  .00000644  00000-0  00000-0 0  9995
2 26463 138.6636 349.1486 6435050 201.5506 359.3443  0.44222893 13057
CLUSTER II-FM8 (TANGO)   Age = -0.05
1 26464U 00045B   22012.80808314  .00000388  00000-0  00000-0 0  9999
2 26464 133.5502 346.3060 5309438 196.3842 359.3226  0.44219692 13135
SL-6 R/B(2)              Age = -0.02
1 32705U 77093E   22012.77398891 -.00000048  00000-0  00000+0 0  9994
2 32705  34.0745 221.4246 8811306 264.9459 359.8685  0.25821332 13126
SPEKTR-R                 Age = -3.41
1 37755U 11037A   22016.16246096 -.00013483  00000-0  00000+0 0  9993
2 37755  59.5612 307.7486 7990681 352.8195 355.4158  0.10302778  4334
